<?xml version="1.0" encoding="UTF-8"?>
<ndm xmlns:xsi="http://www.w3.org/2001/XMLSchema-instance" xsi:noNamespaceSchemaLocation="https://sanaregistry.org/r/ndmxml_unqualified/ndmxml-2.0.0-master-2.0.xsd">
<omm id="CCSDS_OMM_VERS" version="2.0">
<header><CREATION_DATE/><ORIGINATOR/></header><body><segment><metadata><OBJECT_NAME>ORBCOMM FM37</OBJECT_NAME><OBJECT_ID>2008-031E</OBJECT_ID><CENTER_NAME>EARTH</CENTER_NAME><REF_FRAME>TEME</REF_FRAME><TIME_SYSTEM>UTC</TIME_SYSTEM><MEAN_ELEMENT_THEORY>SGP4</MEAN_ELEMENT_THEORY></metadata><data><meanElements><EPOCH>2024-05-29T16:48:58.821120</EPOCH><MEAN_MOTION>14.76570406</MEAN_MOTION><ECCENTRICITY>.0006113</ECCENTRICITY><INCLINATION>48.4413</INCLINATION><RA_OF_ASC_NODE>2.3906</RA_OF_ASC_NODE><ARG_OF_PERICENTER>178.8078</ARG_OF_PERICENTER><MEAN_ANOMALY>295.6155</MEAN_ANOMALY></meanElements><tleParameters><EPHEMERIS_TYPE>0</EPHEMERIS_TYPE><CLASSIFICATION_TYPE>U</CLASSIFICATION_TYPE><NORAD_CAT_ID>33064</NORAD_CAT_ID><ELEMENT_SET_NO>999</ELEMENT_SET_NO><REV_AT_EPOCH>85731</REV_AT_EPOCH><BSTAR>.33145E-3</BSTAR><MEAN_MOTION_DOT>.2131E-4</MEAN_MOTION_DOT><MEAN_MOTION_DDOT>0</MEAN_MOTION_DDOT></tleParameters></data></segment></body></omm>
<omm id="CCSDS_OMM_VERS" version="2.0">
<header><CREATION_DATE/><ORIGINATOR/></header><body><segment><metadata><OBJECT_NAME>VESSELSAT 1</OBJECT_NAME><OBJECT_ID>2011-058C</OBJECT_ID><CENTER_NAME>EARTH</CENTER_NAME><REF_FRAME>TEME</REF_FRAME><TIME_SYSTEM>UTC</TIME_SYSTEM><MEAN_ELEMENT_THEORY>SGP4</MEAN_ELEMENT_THEORY></metadata><data><meanElements><EPOCH>2024-05-31T12:03:32.181984</EPOCH><MEAN_MOTION>14.11161573</MEAN_MOTION><ECCENTRICITY>.0013609</ECCENTRICITY><INCLINATION>19.9615</INCLINATION><RA_OF_ASC_NODE>243.1312</RA_OF_ASC_NODE><ARG_OF_PERICENTER>309.3255</ARG_OF_PERICENTER><MEAN_ANOMALY>50.5943</MEAN_ANOMALY></meanElements><tleParameters><EPHEMERIS_TYPE>0</EPHEMERIS_TYPE><CLASSIFICATION_TYPE>U</CLASSIFICATION_TYPE><NORAD_CAT_ID>37840</NORAD_CAT_ID><ELEMENT_SET_NO>999</ELEMENT_SET_NO><REV_AT_EPOCH>65255</REV_AT_EPOCH><BSTAR>.83149E-4</BSTAR><MEAN_MOTION_DOT>.417E-5</MEAN_MOTION_DOT><MEAN_MOTION_DDOT>0</MEAN_MOTION_DDOT></tleParameters></data></segment></body></omm>
<omm id="CCSDS_OMM_VERS" version="2.0">
<header><CREATION_DATE/><ORIGINATOR/></header><body><segment><metadata><OBJECT_NAME>ORBCOMM FM109</OBJECT_NAME><OBJECT_ID>2014-040A</OBJECT_ID><CENTER_NAME>EARTH</CENTER_NAME><REF_FRAME>TEME</REF_FRAME><TIME_SYSTEM>UTC</TIME_SYSTEM><MEAN_ELEMENT_THEORY>SGP4</MEAN_ELEMENT_THEORY></metadata><data><meanElements><EPOCH>2024-05-31T13:32:50.782560</EPOCH><MEAN_MOTION>14.56694041</MEAN_MOTION><ECCENTRICITY>.000192</ECCENTRICITY><INCLINATION>47.0049</INCLINATION><RA_OF_ASC_NODE>16.7003</RA_OF_ASC_NODE><ARG_OF_PERICENTER>347.5123</ARG_OF_PERICENTER><MEAN_ANOMALY>12.5714</MEAN_ANOMALY></meanElements><tleParameters><EPHEMERIS_TYPE>0</EPHEMERIS_TYPE><CLASSIFICATION_TYPE>U</CLASSIFICATION_TYPE><NORAD_CAT_ID>40086</NORAD_CAT_ID><ELEMENT_SET_NO>999</ELEMENT_SET_NO><REV_AT_EPOCH>52539</REV_AT_EPOCH><BSTAR>.39206E-3</BSTAR><MEAN_MOTION_DOT>.16E-4</MEAN_MOTION_DOT><MEAN_MOTION_DDOT>0</MEAN_MOTION_DDOT></tleParameters></data></segment></body></omm>
<omm id="CCSDS_OMM_VERS" version="2.0">
<header><CREATION_DATE/><ORIGINATOR/></header><body><segment><metadata><OBJECT_NAME>ORBCOMM FM107</OBJECT_NAME><OBJECT_ID>2014-040B</OBJECT_ID><CENTER_NAME>EARTH</CENTER_NAME><REF_FRAME>TEME</REF_FRAME><TIME_SYSTEM>UTC</TIME_SYSTEM><MEAN_ELEMENT_THEORY>SGP4</MEAN_ELEMENT_THEORY></metadata><data><meanElements><EPOCH>2024-05-31T14:21:56.295936</EPOCH><MEAN_MOTION>14.56705112</MEAN_MOTION><ECCENTRICITY>.0001663</ECCENTRICITY><INCLINATION>47.0067</INCLINATION><RA_OF_ASC_NODE>17.5069</RA_OF_ASC_NODE><ARG_OF_PERICENTER>312.2958</ARG_OF_PERICENTER><MEAN_ANOMALY>47.7786</MEAN_ANOMALY></meanElements><tleParameters><EPHEMERIS_TYPE>0</EPHEMERIS_TYPE><CLASSIFICATION_TYPE>U</CLASSIFICATION_TYPE><NORAD_CAT_ID>40087</NORAD_CAT_ID><ELEMENT_SET_NO>999</ELEMENT_SET_NO><REV_AT_EPOCH>52547</REV_AT_EPOCH><BSTAR>.38731E-3</BSTAR><MEAN_MOTION_DOT>.1579E-4</MEAN_MOTION_DOT><MEAN_MOTION_DDOT>0</MEAN_MOTION_DDOT></tleParameters></data></segment></body></omm>
<omm id="CCSDS_OMM_VERS" version="2.0">
<header><CREATION_DATE/><ORIGINATOR/></header><body><segment><metadata><OBJECT_NAME>ORBCOMM FM106</OBJECT_NAME><OBJECT_ID>2014-040C</OBJECT_ID><CENTER_NAME>EARTH</CENTER_NAME><REF_FRAME>TEME</REF_FRAME><TIME_SYSTEM>UTC</TIME_SYSTEM><MEAN_ELEMENT_THEORY>SGP4</MEAN_ELEMENT_THEORY></metadata><data><meanElements><EPOCH>2024-05-31T07:18:05.340672</EPOCH><MEAN_MOTION>14.67138178</MEAN_MOTION><ECCENTRICITY>.0016709</ECCENTRICITY><INCLINATION>47.0594</INCLINATION><RA_OF_ASC_NODE>230.4874</RA_OF_ASC_NODE><ARG_OF_PERICENTER>93.8746</ARG_OF_PERICENTER><MEAN_ANOMALY>266.4055</MEAN_ANOMALY></meanElements><tleParameters><EPHEMERIS_TYPE>0</EPHEMERIS_TYPE><CLASSIFICATION_TYPE>U</CLASSIFICATION_TYPE><NORAD_CAT_ID>40088</NORAD_CAT_ID><ELEMENT_SET_NO>999</ELEMENT_SET_NO><REV_AT_EPOCH>52735</REV_AT_EPOCH><BSTAR>.3459E-3</BSTAR><MEAN_MOTION_DOT>.1782E-4</MEAN_MOTION_DOT><MEAN_MOTION_DDOT>0</MEAN_MOTION_DDOT></tleParameters></data></segment></body></omm>
<omm id="CCSDS_OMM_VERS" version="2.0">
<header><CREATION_DATE/><ORIGINATOR/></header><body><segment><metadata><OBJECT_NAME>ORBCOMM FM111</OBJECT_NAME><OBJECT_ID>2014-040D</OBJECT_ID><CENTER_NAME>EARTH</CENTER_NAME><REF_FRAME>TEME</REF_FRAME><TIME_SYSTEM>UTC</TIME_SYSTEM><MEAN_ELEMENT_THEORY>SGP4</MEAN_ELEMENT_THEORY></metadata><data><meanElements><EPOCH>2024-05-31T07:52:40.035360</EPOCH><MEAN_MOTION>14.81940554</MEAN_MOTION><ECCENTRICITY>.0032348</ECCENTRICITY><INCLINATION>47.0026</INCLINATION><RA_OF_ASC_NODE>128.9159</RA_OF_ASC_NODE><ARG_OF_PERICENTER>169.7959</ARG_OF_PERICENTER><MEAN_ANOMALY>190.3600</MEAN_ANOMALY></meanElements><tleParameters><EPHEMERIS_TYPE>0</EPHEMERIS_TYPE><CLASSIFICATION_TYPE>U</CLASSIFICATION_TYPE><NORAD_CAT_ID>40089</NORAD_CAT_ID><ELEMENT_SET_NO>999</ELEMENT_SET_NO><REV_AT_EPOCH>53350</REV_AT_EPOCH><BSTAR>.45396E-3</BSTAR><MEAN_MOTION_DOT>.3458E-4</MEAN_MOTION_DOT><MEAN_MOTION_DDOT>0</MEAN_MOTION_DDOT></tleParameters></data></segment></body></omm>
<omm id="CCSDS_OMM_VERS" version="2.0">
<header><CREATION_DATE/><ORIGINATOR/></header><body><segment><metadata><OBJECT_NAME>ORBCOMM FM104</OBJECT_NAME><OBJECT_ID>2014-040E</OBJECT_ID><CENTER_NAME>EARTH</CENTER_NAME><REF_FRAME>TEME</REF_FRAME><TIME_SYSTEM>UTC</TIME_SYSTEM><MEAN_ELEMENT_THEORY>SGP4</MEAN_ELEMENT_THEORY></metadata><data><meanElements><EPOCH>2024-05-31T02:39:09.710784</EPOCH><MEAN_MOTION>14.55194742</MEAN_MOTION><ECCENTRICITY>.0017493</ECCENTRICITY><INCLINATION>47.0065</INCLINATION><RA_OF_ASC_NODE>48.9485</RA_OF_ASC_NODE><ARG_OF_PERICENTER>260.7170</ARG_OF_PERICENTER><MEAN_ANOMALY>99.1736</MEAN_ANOMALY></meanElements><tleParameters><EPHEMERIS_TYPE>0</EPHEMERIS_TYPE><CLASSIFICATION_TYPE>U</CLASSIFICATION_TYPE><NORAD_CAT_ID>40090</NORAD_CAT_ID><ELEMENT_SET_NO>999</ELEMENT_SET_NO><REV_AT_EPOCH>52494</REV_AT_EPOCH><BSTAR>.28367E-3</BSTAR><MEAN_MOTION_DOT>.1072E-4</MEAN_MOTION_DOT><MEAN_MOTION_DDOT>0</MEAN_MOTION_DDOT></tleParameters></data></segment></body></omm>

</ndm>
