ORBCOMM FM37            
1 33064U 08031E   24150.70068080  .00002131  00000+0  33145-3 0  9994
2 33064  48.4413   2.3906 0006113 178.8078 295.6155 14.76570406857319
VESSELSAT 1             
1 37840U 11058C   24152.50245581  .00000417  00000+0  83149-4 0  9991
2 37840  19.9615 243.1312 0013609 309.3255  50.5943 14.11161573652556
ORBCOMM FM109           
1 40086U 14040A   24152.56447665  .00001600  00000+0  39206-3 0  9993
2 40086  47.0049  16.7003 0001920 347.5123  12.5714 14.56694041525392
ORBCOMM FM107           
1 40087U 14040B   24152.59856824  .00001579  00000+0  38731-3 0  9995
2 40087  47.0067  17.5069 0001663 312.2958  47.7786 14.56705112525473
ORBCOMM FM106           
1 40088U 14040C   24152.30422848  .00001782  00000+0  34590-3 0  9995
2 40088  47.0594 230.4874 0016709  93.8746 266.4055 14.67138178527355
ORBCOMM FM111           
1 40089U 14040D   24152.32824115  .00003458  00000+0  45396-3 0  9999
2 40089  47.0026 128.9159 0032348 169.7959 190.3600 14.81940554533509
ORBCOMM FM104           
1 40090U 14040E   24152.11052906  .00001072  00000+0  28367-3 0  9998
2 40090  47.0065  48.9485 0017493 260.7170  99.1736 14.55194742524943
